GLOBALSTAR M067 [+]     
1 32263U 07048A   24040.41396528 -.00000052  00000+0  33367-3 0  9995
2 32263  51.9740  40.7108 0000815  23.6141 124.1529 12.40637797748194
GLOBALSTAR M070 [+]     
1 32264U 07048B   24040.59988991 -.00000100  00000+0  22394-4 0  9999
2 32264  51.9727 192.1284 0001264 101.5481 338.8762 12.62286223751330
GLOBALSTAR M066 [+]     
1 32265U 07048C   24040.24172751 -.00000078  00000+0  14352-3 0  9999
2 32265  51.9683  55.2318 0000540 242.4940 198.7003 12.62259761753554
GLOBALSTAR M068 [-]     
1 32266U 07048D   24040.09892587 -.00000049  00000+0  30594-3 0  9993
2 32266  51.9913   8.3450 0001020 114.6277 327.0451 12.62778468755134
GLOBALSTAR M079 [+]     
1 37188U 10054A   24040.62689132 -.00000109  00000+0 -26387-4 0  9995
2 37188  52.0013 202.2624 0000734  92.3152 346.5292 12.62266434614125
GLOBALSTAR M074 [+]     
1 37189U 10054B   24040.48528708 -.00000121  00000+0 -94435-4 0  9994
2 37189  51.9990 202.0930 0001031  96.5947 298.1112 12.62265144614710
GLOBALSTAR M076 [+]     
1 37190U 10054C   24040.60037509 -.00000105  00000+0 -51799-5 0  9993
2 37190  52.0004 201.8713 0001037  65.7735  10.6638 12.62274676614445
GLOBALSTAR M077 [+]     
1 37191U 10054D   24040.50851588 -.00000112  00000+0 -44962-4 0  9995
2 37191  52.0063 158.8636 0000951 107.3606 331.8180 12.62269274614808
